STARLINK-31467          
1 59235U 24049E   26068.54044499 -.00000571  00000+0 -11234-4 0  9993
2 59235  43.0021 144.3464 0001386 274.4787  85.5906 15.27573653112381
AL MUNTHER              
1 63240U 25052AG  26068.64540749  .00017933  00000+0  65015-3 0  9992
2 63240  97.4001 323.9152 0008027 130.7043 229.4895 15.28381521 54798
